[{"OBJECT_NAME":"STARLINK-36706","OBJECT_ID":"2026-022K","EPOCH":"2026-03-09T22:00:01.999584","MEAN_MOTION":15.67261304,"ECCENTRICITY":0.00015605,"INCLINATION":97.285,"RA_OF_ASC_NODE":102.9026,"ARG_OF_PERICENTER":67.2602,"MEAN_ANOMALY":325.5954,"EPHEMERIS_TYPE":0,"CLASSIFICATION_TYPE":"U","NORAD_CAT_ID":67657,"ELEMENT_SET_NO":999,"REV_AT_EPOCH":608,"BSTAR":-0.020198201,"MEAN_MOTION_DOT":-0.019182,"MEAN_MOTION_DDOT":0},{"OBJECT_NAME":"CZ-6A DEB","OBJECT_ID":"2024-140WS","EPOCH":"2026-03-09T22:52:03.972864","MEAN_MOTION":15.45783762,"ECCENTRICITY":0.00384783,"INCLINATION":89.2121,"RA_OF_ASC_NODE":294.2866,"ARG_OF_PERICENTER":90.9386,"MEAN_ANOMALY":269.6282,"EPHEMERIS_TYPE":0,"CLASSIFICATION_TYPE":"U","NORAD_CAT_ID":61377,"ELEMENT_SET_NO":999,"REV_AT_EPOCH":8253,"BSTAR":0.0057933589,"MEAN_MOTION_DOT":0.00298236,"MEAN_MOTION_DDOT":0}]
